QIANFAN-60              
1 62790U 25016F   25213.18736114  .00000056  00000+0  68674-4 0  9997
2 62790  88.9830 116.8841 0016443  17.4536 342.7177 13.50958054 29197
QIANFAN-61              
1 62791U 25016G   25213.12585699  .00000140  00000+0  19841-3 0  9997
2 62791  88.9897 116.9573 0015869  16.5212 343.6453 13.50957577 29204
QIANFAN-62              
1 62792U 25016H   25213.20385930  .00000141  00000+0  20012-3 0  9996
2 62792  88.9843 116.8901 0017274  16.0182 344.1512 13.50956525 29207
QIANFAN-63              
1 62793U 25016J   25213.21621362  .00000138  00000+0  19454-3 0  9994
2 62793  88.9849 116.8284 0017214  20.2850 339.8981 13.50953626 29245
QIANFAN-64              
1 62794U 25016K   25212.83762014  .00000117  00000+0  16300-3 0  9996
2 62794  88.9837 116.8653 0014915  16.4388 343.7244 13.50956349 29185
QIANFAN-65              
1 62795U 25016L   25213.19162990  .00000134  00000+0  18970-3 0  9998
2 62795  88.9833 116.8569 0015111  17.0739 343.0918 13.50960165 29210
QIANFAN-66              
1 62796U 25016M   25212.84995398  .00000129  00000+0  18174-3 0  9996
2 62796  88.9852 116.8358 0016121  13.3489 346.8086 13.50962297 29216
QIANFAN-67              
1 62797U 25016N   25213.52079995  .00000129  00000+0  18106-3 0  9994
2 62797  88.9842 116.8057 0016252  17.9308 342.2413 13.50964007 29278
QIANFAN-68              
1 62798U 25016P   25212.85826186  .00000126  00000+0  17710-3 0  9999
2 62798  88.9846 116.9170 0016885  17.8578 342.3163 13.50961237 29163
QIANFAN-69              
1 62799U 25016Q   25213.52890214  .00000102  00000+0  13909-3 0  9998
2 62799  88.9824 116.7434 0017014  16.9432 343.2284 13.50956986 29298
QIANFAN-70              
1 62800U 25016R   25213.17511635  .00000143  00000+0  20352-3 0  9994
2 62800  88.9846 116.8898 0016317   9.1114 351.0330 13.50960770 29202
QIANFAN-71              
1 62801U 25016S   25213.17108409  .00000140  00000+0  19798-3 0  9995
2 62801  88.9840 116.8779 0017070  21.1947 338.9908 13.50960574 29207
QIANFAN-72              
1 62802U 25016T   25213.09274440  .00000132  00000+0  18512-3 0  9990
2 62802  88.9830 116.9076 0020669  26.3487 333.8711 13.50962185 29185
QIANFAN-73              
1 63159U 25046A   25213.14045483  .00000146  00000+0  20707-3 0  9992
2 63159  88.9858 333.7885 0016387 145.3027 214.9196 13.50958346 29373
QIANFAN-74              
1 63160U 25046B   25213.19811563  .00000142  00000+0  20218-3 0  9992
2 63160  88.9858 333.6712 0001964 102.1063 258.0308 13.50962868 29445
QIANFAN-75              
1 63161U 25046C   25213.55610896  .00000155  00000+0  22141-3 0  9990
2 63161  88.9859 333.8662 0017520 147.3908 212.8329 13.50959413 29361
QIANFAN-76              
1 63162U 25046D   25213.55182049  .00000181  00000+0  26192-3 0  9994
2 63162  88.9859 333.8479 0015083 147.2365 212.9724 13.50955510 29371
QIANFAN-77              
1 63163U 25046E   25212.86867857  .00000344  00000+0  24098-3 0  9999
2 63163  88.9856 333.0221 0016567 134.0758 226.1786 13.96004766 29771
QIANFAN-78              
1 63164U 25046F   25213.22277763  .00000160  00000+0  22901-3 0  9999
2 63164  88.9857 333.7470 0016366 150.6881 209.5192 13.50958702 29408
QIANFAN-79              
1 63165U 25046G   25213.54776139  .00000173  00000+0  24981-3 0  9990
2 63165  88.9862 333.8160 0016113 148.2179 211.9948 13.50960949 29407
QIANFAN-80              
1 63166U 25046H   25213.49026857  .00000152  00000+0  21691-3 0  9992
2 63166  88.9859 333.5325 0015000 151.9411 208.2552 13.50961179 29549
QIANFAN-81              
1 63167U 25046J   25212.87713257  .00000145  00000+0  20573-3 0  9991
2 63167  88.9858 333.6638 0016215 143.2712 216.9554 13.50959792 29416
QIANFAN-82              
1 63168U 25046K   25213.13209957  .00000148  00000+0  21047-3 0  9999
2 63168  88.9859 333.6811 0014209 149.1762 211.0226 13.50961440 29439
QIANFAN-83              
1 63169U 25046L   25213.13417118  .00000190  00000+0  23069-3 0  9993
2 63169  88.9858 333.7188 0015648 142.6967 217.5280 13.61930599 29423
QIANFAN-84              
1 63170U 25046M   25213.16097462  .00000160  00000+0  22953-3 0  9992
2 63170  88.9858 333.8113 0017244 146.7568 213.4670 13.50963570 29364
QIANFAN-85              
1 63171U 25046N   25212.86064779  .00000151  00000+0  21508-3 0  9999
2 63171  88.9858 333.7143 0014551 149.0313 211.1699 13.50957759 29390
QIANFAN-86              
1 63172U 25046P   25212.86887683  .00000155  00000+0  22187-3 0  9995
2 63172  88.9860 333.5725 0012347 151.8977 208.2843 13.50958015 29479
QIANFAN-87              
1 63173U 25046Q   25212.91402634  .00000158  00000+0  22666-3 0  9996
2 63173  88.9856 333.6846 0013172 147.5650 212.6313 13.50955852 29418
QIANFAN-88              
1 63174U 25046R   25213.52320980  .00000154  00000+0  22037-3 0  9996
2 63174  88.9859 333.5735 0013406 153.4279 206.7562 13.50958393 29526
QIANFAN-89              
1 63175U 25046S   25213.56013154  .00000152  00000+0  21600-3 0  9996
2 63175  88.9859 333.7587 0017935 146.3482 213.8812 13.50963155 29420
QIANFAN-90              
1 63176U 25046T   25213.21859308  .00000152  00000+0  21633-3 0  9994
2 63176  88.9859 333.7658 0014903 144.6829 215.5313 13.50961543 29398
